[{"OBJECT_NAME":"ONEWEB-0428","OBJECT_ID":"2022-012H","EPOCH":"2025-09-07T06:13:42.259296","MEAN_MOTION":13.10369394,"ECCENTRICITY":0.00015104,"INCLINATION":87.874,"RA_OF_ASC_NODE":92.7056,"ARG_OF_PERICENTER":81.8967,"MEAN_ANOMALY":278.2332,"EPHEMERIS_TYPE":0,"CLASSIFICATION_TYPE":"U","NORAD_CAT_ID":51629,"ELEMENT_SET_NO":999,"REV_AT_EPOCH":17223,"BSTAR":0.00099170012,"MEAN_MOTION_DOT":3.59e-6,"MEAN_MOTION_DDOT":0},{"OBJECT_NAME":"ONEWEB-0431","OBJECT_ID":"2022-012J","EPOCH":"2025-09-07T00:00:44.004384","MEAN_MOTION":13.10389848,"ECCENTRICITY":0.0001117,"INCLINATION":87.8755,"RA_OF_ASC_NODE":92.7294,"ARG_OF_PERICENTER":99.2248,"MEAN_ANOMALY":260.9006,"EPHEMERIS_TYPE":0,"CLASSIFICATION_TYPE":"U","NORAD_CAT_ID":51630,"ELEMENT_SET_NO":999,"REV_AT_EPOCH":17225,"BSTAR":0.006096624,"MEAN_MOTION_DOT":2.142e-5,"MEAN_MOTION_DDOT":0},{"OBJECT_NAME":"ONEWEB-0434","OBJECT_ID":"2022-012K","EPOCH":"2025-09-07T03:07:15.088800","MEAN_MOTION":13.1037275,"ECCENTRICITY":0.0002321,"INCLINATION":87.8747,"RA_OF_ASC_NODE":92.7455,"ARG_OF_PERICENTER":82.7572,"MEAN_ANOMALY":277.3819,"EPHEMERIS_TYPE":0,"CLASSIFICATION_TYPE":"U","NORAD_CAT_ID":51631,"ELEMENT_SET_NO":999,"REV_AT_EPOCH":17225,"BSTAR":-0.001861344,"MEAN_MOTION_DOT":-6.37e-6,"MEAN_MOTION_DDOT":0},{"OBJECT_NAME":"ONEWEB-0435","OBJECT_ID":"2022-012L","EPOCH":"2025-09-07T01:29:13.930656","MEAN_MOTION":13.10373556,"ECCENTRICITY":0.00014383,"INCLINATION":87.8748,"RA_OF_ASC_NODE":92.7511,"ARG_OF_PERICENTER":71.7645,"MEAN_ANOMALY":288.3639,"EPHEMERIS_TYPE":0,"CLASSIFICATION_TYPE":"U","NORAD_CAT_ID":51632,"ELEMENT_SET_NO":999,"REV_AT_EPOCH":17223,"BSTAR":-0.0014920887,"MEAN_MOTION_DOT":-5.08e-6,"MEAN_MOTION_DDOT":0},{"OBJECT_NAME":"ONEWEB-0436","OBJECT_ID":"2022-012M","EPOCH":"2025-09-07T04:45:16.182144","MEAN_MOTION":13.17649663,"ECCENTRICITY":0.00014936,"INCLINATION":87.9032,"RA_OF_ASC_NODE":62.131,"ARG_OF_PERICENTER":88.1332,"MEAN_ANOMALY":271.997,"EPHEMERIS_TYPE":0,"CLASSIFICATION_TYPE":"U","NORAD_CAT_ID":51633,"ELEMENT_SET_NO":999,"REV_AT_EPOCH":17641,"BSTAR":7.7840876e-5,"MEAN_MOTION_DOT":4.3e-7,"MEAN_MOTION_DDOT":0},{"OBJECT_NAME":"ONEWEB-0438","OBJECT_ID":"2022-012N","EPOCH":"2025-09-07T02:55:17.210208","MEAN_MOTION":13.1036934,"ECCENTRICITY":0.00018517,"INCLINATION":87.8741,"RA_OF_ASC_NODE":92.7396,"ARG_OF_PERICENTER":84.9243,"MEAN_ANOMALY":275.2096,"EPHEMERIS_TYPE":0,"CLASSIFICATION_TYPE":"U","NORAD_CAT_ID":51634,"ELEMENT_SET_NO":999,"REV_AT_EPOCH":17227,"BSTAR":-0.0012235326,"MEAN_MOTION_DOT":-4.14e-6,"MEAN_MOTION_DDOT":0},{"OBJECT_NAME":"ONEWEB-0439","OBJECT_ID":"2022-012P","EPOCH":"2025-09-07T03:00:03.814560","MEAN_MOTION":13.10370018,"ECCENTRICITY":0.00016794,"INCLINATION":87.8743,"RA_OF_ASC_NODE":92.7274,"ARG_OF_PERICENTER":82.0147,"MEAN_ANOMALY":278.1171,"EPHEMERIS_TYPE":0,"CLASSIFICATION_TYPE":"U","NORAD_CAT_ID":51635,"ELEMENT_SET_NO":999,"REV_AT_EPOCH":17225,"BSTAR":-0.0015422211,"MEAN_MOTION_DOT":-5.26e-6,"MEAN_MOTION_DDOT":0},{"OBJECT_NAME":"ONEWEB-0442","OBJECT_ID":"2022-012Q","EPOCH":"2025-09-07T04:34:21.275328","MEAN_MOTION":13.17648714,"ECCENTRICITY":0.00023293,"INCLINATION":87.903,"RA_OF_ASC_NODE":62.1861,"ARG_OF_PERICENTER":97.7854,"MEAN_ANOMALY":262.3542,"EPHEMERIS_TYPE":0,"CLASSIFICATION_TYPE":"U","NORAD_CAT_ID":51636,"ELEMENT_SET_NO":999,"REV_AT_EPOCH":17640,"BSTAR":2.1082706e-5,"MEAN_MOTION_DOT":2.1e-7,"MEAN_MOTION_DDOT":0},{"OBJECT_NAME":"ONEWEB-0443","OBJECT_ID":"2022-012R","EPOCH":"2025-09-07T05:02:17.480256","MEAN_MOTION":13.17648232,"ECCENTRICITY":0.00019638,"INCLINATION":87.9027,"RA_OF_ASC_NODE":62.1902,"ARG_OF_PERICENTER":83.5009,"MEAN_ANOMALY":276.6346,"EPHEMERIS_TYPE":0,"CLASSIFICATION_TYPE":"U","NORAD_CAT_ID":51637,"ELEMENT_SET_NO":999,"REV_AT_EPOCH":17645,"BSTAR":-9.069478e-6,"MEAN_MOTION_DOT":9.0e-8,"MEAN_MOTION_DDOT":0},{"OBJECT_NAME":"ONEWEB-0444","OBJECT_ID":"2022-012S","EPOCH":"2025-09-07T06:25:39.629856","MEAN_MOTION":13.10370009,"ECCENTRICITY":0.00016155,"INCLINATION":87.8739,"RA_OF_ASC_NODE":92.6991,"ARG_OF_PERICENTER":79.2828,"MEAN_ANOMALY":280.8481,"EPHEMERIS_TYPE":0,"CLASSIFICATION_TYPE":"U","NORAD_CAT_ID":51638,"ELEMENT_SET_NO":999,"REV_AT_EPOCH":17228,"BSTAR":-3.5316269e-5,"MEAN_MOTION_DOT":0,"MEAN_MOTION_DDOT":0},{"OBJECT_NAME":"ONEWEB-0445","OBJECT_ID":"2022-012T","EPOCH":"2025-09-07T01:26:51.774144","MEAN_MOTION":13.10373875,"ECCENTRICITY":0.0001722,"INCLINATION":87.8757,"RA_OF_ASC_NODE":92.6936,"ARG_OF_PERICENTER":90.9292,"MEAN_ANOMALY":269.2033,"EPHEMERIS_TYPE":0,"CLASSIFICATION_TYPE":"U","NORAD_CAT_ID":51639,"ELEMENT_SET_NO":999,"REV_AT_EPOCH":17226,"BSTAR":-0.0014463262,"MEAN_MOTION_DOT":-4.92e-6,"MEAN_MOTION_DDOT":0},{"OBJECT_NAME":"ONEWEB-0446","OBJECT_ID":"2022-012U","EPOCH":"2025-09-07T06:23:15.424800","MEAN_MOTION":13.10368579,"ECCENTRICITY":0.00016142,"INCLINATION":87.874,"RA_OF_ASC_NODE":92.7148,"ARG_OF_PERICENTER":93.219,"MEAN_ANOMALY":266.9122,"EPHEMERIS_TYPE":0,"CLASSIFICATION_TYPE":"U","NORAD_CAT_ID":51640,"ELEMENT_SET_NO":999,"REV_AT_EPOCH":17227,"BSTAR":0.00018372159,"MEAN_MOTION_DOT":7.7e-7,"MEAN_MOTION_DDOT":0},{"OBJECT_NAME":"ONEWEB-0448","OBJECT_ID":"2022-012V","EPOCH":"2025-09-07T02:50:31.211520","MEAN_MOTION":13.10371133,"ECCENTRICITY":0.0001643,"INCLINATION":87.8741,"RA_OF_ASC_NODE":92.7439,"ARG_OF_PERICENTER":82.015,"MEAN_ANOMALY":278.1163,"EPHEMERIS_TYPE":0,"CLASSIFICATION_TYPE":"U","NORAD_CAT_ID":51641,"ELEMENT_SET_NO":999,"REV_AT_EPOCH":17222,"BSTAR":-0.00068539198,"MEAN_MOTION_DOT":-2.27e-6,"MEAN_MOTION_DDOT":0},{"OBJECT_NAME":"ONEWEB-0449","OBJECT_ID":"2022-012W","EPOCH":"2025-09-07T02:57:41.782464","MEAN_MOTION":13.10371428,"ECCENTRICITY":0.00021325,"INCLINATION":87.8738,"RA_OF_ASC_NODE":92.7141,"ARG_OF_PERICENTER":83.0671,"MEAN_ANOMALY":277.0698,"EPHEMERIS_TYPE":0,"CLASSIFICATION_TYPE":"U","NORAD_CAT_ID":51642,"ELEMENT_SET_NO":999,"REV_AT_EPOCH":17223,"BSTAR":-0.0013037371,"MEAN_MOTION_DOT":-4.42e-6,"MEAN_MOTION_DDOT":0},{"OBJECT_NAME":"ONEWEB-0451","OBJECT_ID":"2022-012X","EPOCH":"2025-09-07T04:40:24.888864","MEAN_MOTION":13.17648047,"ECCENTRICITY":0.00019154,"INCLINATION":87.9042,"RA_OF_ASC_NODE":62.1236,"ARG_OF_PERICENTER":89.8695,"MEAN_ANOMALY":270.2656,"EPHEMERIS_TYPE":0,"CLASSIFICATION_TYPE":"U","NORAD_CAT_ID":51643,"ELEMENT_SET_NO":999,"REV_AT_EPOCH":17639,"BSTAR":2.9778667e-5,"MEAN_MOTION_DOT":2.4e-7,"MEAN_MOTION_DDOT":0},{"OBJECT_NAME":"ONEWEB-0452","OBJECT_ID":"2022-012Y","EPOCH":"2025-09-07T04:37:59.971872","MEAN_MOTION":13.17650157,"ECCENTRICITY":0.00019571,"INCLINATION":87.9032,"RA_OF_ASC_NODE":62.1865,"ARG_OF_PERICENTER":84.942,"MEAN_ANOMALY":275.1935,"EPHEMERIS_TYPE":0,"CLASSIFICATION_TYPE":"U","NORAD_CAT_ID":51644,"ELEMENT_SET_NO":999,"REV_AT_EPOCH":17640,"BSTAR":-5.542519e-6,"MEAN_MOTION_DOT":1.1e-7,"MEAN_MOTION_DDOT":0},{"OBJECT_NAME":"ONEWEB-0456","OBJECT_ID":"2022-012AA","EPOCH":"2025-09-07T01:22:03.327744","MEAN_MOTION":13.10372345,"ECCENTRICITY":0.00015193,"INCLINATION":87.8753,"RA_OF_ASC_NODE":92.6876,"ARG_OF_PERICENTER":80.7022,"MEAN_ANOMALY":279.4277,"EPHEMERIS_TYPE":0,"CLASSIFICATION_TYPE":"U","NORAD_CAT_ID":51646,"ELEMENT_SET_NO":999,"REV_AT_EPOCH":17226,"BSTAR":-0.0016125534,"MEAN_MOTION_DOT":-5.5e-6,"MEAN_MOTION_DDOT":0}]
