ONEWEB-0428             
1 51629U 22012H   25250.25951689  .00000359  00000+0  99170-3 0  9994
2 51629  87.8740  92.7056 0001510  81.8967 278.2332 13.10369394172235
ONEWEB-0431             
1 51630U 22012J   25250.00050931  .00002142  00000+0  60966-2 0  9991
2 51630  87.8755  92.7294 0001117  99.2248 260.9006 13.10389848172259
ONEWEB-0434             
1 51631U 22012K   25250.13003575 -.00000637  00000+0 -18613-2 0  9999
2 51631  87.8747  92.7455 0002321  82.7572 277.3819 13.10372750172253
ONEWEB-0435             
1 51632U 22012L   25250.06196679 -.00000508  00000+0 -14921-2 0  9995
2 51632  87.8748  92.7511 0001438  71.7645 288.3639 13.10373556172230
ONEWEB-0436             
1 51633U 22012M   25250.19810396  .00000043  00000+0  77841-4 0  9993
2 51633  87.9032  62.1310 0001493  88.1332 271.9970 13.17649663176414
ONEWEB-0438             
1 51634U 22012N   25250.12172697 -.00000414  00000+0 -12235-2 0  9990
2 51634  87.8741  92.7396 0001851  84.9243 275.2096 13.10369340172277
ONEWEB-0439             
1 51635U 22012P   25250.12504415 -.00000526  00000+0 -15422-2 0  9993
2 51635  87.8743  92.7274 0001679  82.0147 278.1171 13.10370018172253
ONEWEB-0442             
1 51636U 22012Q   25250.19052402  .00000021  00000+0  21083-4 0  9995
2 51636  87.9030  62.1861 0002329  97.7854 262.3542 13.17648714176404
ONEWEB-0443             
1 51637U 22012R   25250.20992454  .00000009  00000+0 -90695-5 0  9991
2 51637  87.9027  62.1902 0001963  83.5009 276.6346 13.17648232176455
ONEWEB-0444             
1 51638U 22012S   25250.26781979  .00000000  00000+0 -35316-4 0  9995
2 51638  87.8739  92.6991 0001615  79.2828 280.8481 13.10370009172287
ONEWEB-0445             
1 51639U 22012T   25250.06032146 -.00000492  00000+0 -14463-2 0  9993
2 51639  87.8757  92.6936 0001722  90.9292 269.2033 13.10373875172267
ONEWEB-0446             
1 51640U 22012U   25250.26615075  .00000077  00000+0  18372-3 0  9996
2 51640  87.8740  92.7148 0001614  93.2190 266.9122 13.10368579172279
ONEWEB-0448             
1 51641U 22012V   25250.11841680 -.00000227  00000+0 -68539-3 0  9993
2 51641  87.8741  92.7439 0001643  82.0150 278.1163 13.10371133172223
ONEWEB-0449             
1 51642U 22012W   25250.12340026 -.00000442  00000+0 -13037-2 0  9994
2 51642  87.8738  92.7141 0002132  83.0671 277.0698 13.10371428172232
ONEWEB-0451             
1 51643U 22012X   25250.19473251  .00000024  00000+0  29779-4 0  9995
2 51643  87.9042  62.1236 0001915  89.8695 270.2656 13.17648047176397
ONEWEB-0452             
1 51644U 22012Y   25250.19305523  .00000011  00000+0 -55425-5 0  9997
2 51644  87.9032  62.1865 0001957  84.9420 275.1935 13.17650157176404
ONEWEB-0456             
1 51646U 22012AA  25250.05698296 -.00000550  00000+0 -16126-2 0  9997
2 51646  87.8753  92.6876 0001519  80.7022 279.4277 13.10372345172260
